[{"OBJECT_NAME":"FENGYUN 1C DEB","OBJECT_ID":"1999-025JB","EPOCH":"2026-03-02T18:17:44.215584","MEAN_MOTION":14.01783097,"ECCENTRICITY":0.0131944,"INCLINATION":98.6301,"RA_OF_ASC_NODE":341.6815,"ARG_OF_PERICENTER":313.8316,"MEAN_ANOMALY":64.6142,"EPHEMERIS_TYPE":0,"CLASSIFICATION_TYPE":"U","NORAD_CAT_ID":29929,"ELEMENT_SET_NO":999,"REV_AT_EPOCH":97077,"BSTAR":0.0017979,"MEAN_MOTION_DOT":2.905e-5,"MEAN_MOTION_DDOT":0},{"OBJECT_NAME":"FENGYUN 1C DEB","OBJECT_ID":"1999-025JC","EPOCH":"2026-03-02T14:59:19.963104","MEAN_MOTION":14.20937124,"ECCENTRICITY":0.0163228,"INCLINATION":99.0373,"RA_OF_ASC_NODE":310.7349,"ARG_OF_PERICENTER":184.8114,"MEAN_ANOMALY":235.3785,"EPHEMERIS_TYPE":0,"CLASSIFICATION_TYPE":"U","NORAD_CAT_ID":29930,"ELEMENT_SET_NO":999,"REV_AT_EPOCH":99025,"BSTAR":0.00019926,"MEAN_MOTION_DOT":4.46e-6,"MEAN_MOTION_DDOT":0},{"OBJECT_NAME":"FENGYUN 1C DEB","OBJECT_ID":"1999-025JD","EPOCH":"2026-03-02T16:09:34.671744","MEAN_MOTION":14.03947943,"ECCENTRICITY":0.0030967,"INCLINATION":98.8494,"RA_OF_ASC_NODE":99.9279,"ARG_OF_PERICENTER":228.5669,"MEAN_ANOMALY":247.388,"EPHEMERIS_TYPE":0,"CLASSIFICATION_TYPE":"U","NORAD_CAT_ID":29931,"ELEMENT_SET_NO":999,"REV_AT_EPOCH":97934,"BSTAR":0.00010008,"MEAN_MOTION_DOT":1.16e-6,"MEAN_MOTION_DDOT":0},{"OBJECT_NAME":"FENGYUN 1C DEB","OBJECT_ID":"1999-025JE","EPOCH":"2026-03-02T12:00:43.861824","MEAN_MOTION":14.16882158,"ECCENTRICITY":0.00372509,"INCLINATION":98.6336,"RA_OF_ASC_NODE":74.8391,"ARG_OF_PERICENTER":199.0411,"MEAN_ANOMALY":314.829,"EPHEMERIS_TYPE":0,"CLASSIFICATION_TYPE":"U","NORAD_CAT_ID":29932,"ELEMENT_SET_NO":999,"REV_AT_EPOCH":98713,"BSTAR":0.000331679,"MEAN_MOTION_DOT":6.27e-6,"MEAN_MOTION_DDOT":0},{"OBJECT_NAME":"FENGYUN 1C DEB","OBJECT_ID":"1999-025JF","EPOCH":"2026-03-02T19:05:14.873856","MEAN_MOTION":14.69320442,"ECCENTRICITY":0.0005596,"INCLINATION":98.745,"RA_OF_ASC_NODE":175.3952,"ARG_OF_PERICENTER":118.9145,"MEAN_ANOMALY":32.4533,"EPHEMERIS_TYPE":0,"CLASSIFICATION_TYPE":"U","NORAD_CAT_ID":29933,"ELEMENT_SET_NO":999,"REV_AT_EPOCH":99679,"BSTAR":0.0036951,"MEAN_MOTION_DOT":0.00021835,"MEAN_MOTION_DDOT":0},{"OBJECT_NAME":"FENGYUN 1C DEB","OBJECT_ID":"1999-025JG","EPOCH":"2026-03-02T16:33:14.736096","MEAN_MOTION":14.64648484,"ECCENTRICITY":0.0099955,"INCLINATION":98.8904,"RA_OF_ASC_NODE":119.9624,"ARG_OF_PERICENTER":7.3034,"MEAN_ANOMALY":352.9595,"EPHEMERIS_TYPE":0,"CLASSIFICATION_TYPE":"U","NORAD_CAT_ID":29934,"ELEMENT_SET_NO":999,"REV_AT_EPOCH":939,"BSTAR":0.00078827,"MEAN_MOTION_DOT":4.45e-5,"MEAN_MOTION_DDOT":0},{"OBJECT_NAME":"FENGYUN 1C DEB","OBJECT_ID":"1999-025JH","EPOCH":"2026-03-02T04:14:01.850784","MEAN_MOTION":14.14280206,"ECCENTRICITY":0.01502569,"INCLINATION":98.4467,"RA_OF_ASC_NODE":124.1689,"ARG_OF_PERICENTER":348.466,"MEAN_ANOMALY":74.0928,"EPHEMERIS_TYPE":0,"CLASSIFICATION_TYPE":"U","NORAD_CAT_ID":29935,"ELEMENT_SET_NO":999,"REV_AT_EPOCH":98665,"BSTAR":0.00011040624,"MEAN_MOTION_DOT":1.93e-6,"MEAN_MOTION_DDOT":0},{"OBJECT_NAME":"FENGYUN 1C DEB","OBJECT_ID":"1999-025JJ","EPOCH":"2026-03-02T19:14:33.710784","MEAN_MOTION":14.35402613,"ECCENTRICITY":0.0112869,"INCLINATION":98.6577,"RA_OF_ASC_NODE":180.4604,"ARG_OF_PERICENTER":310.9414,"MEAN_ANOMALY":48.2043,"EPHEMERIS_TYPE":0,"CLASSIFICATION_TYPE":"U","NORAD_CAT_ID":29936,"ELEMENT_SET_NO":999,"REV_AT_EPOCH":80,"BSTAR":0.000152,"MEAN_MOTION_DOT":4.21e-6,"MEAN_MOTION_DDOT":0},{"OBJECT_NAME":"FENGYUN 1C DEB","OBJECT_ID":"1999-025JK","EPOCH":"2026-03-02T15:30:19.721376","MEAN_MOTION":14.04379592,"ECCENTRICITY":0.0032536,"INCLINATION":98.7976,"RA_OF_ASC_NODE":85.1845,"ARG_OF_PERICENTER":154.5894,"MEAN_ANOMALY":317.5574,"EPHEMERIS_TYPE":0,"CLASSIFICATION_TYPE":"U","NORAD_CAT_ID":29937,"ELEMENT_SET_NO":999,"REV_AT_EPOCH":98057,"BSTAR":0.00020105,"MEAN_MOTION_DOT":2.79e-6,"MEAN_MOTION_DDOT":0},{"OBJECT_NAME":"FENGYUN 1C DEB","OBJECT_ID":"1999-025JL","EPOCH":"2026-03-02T13:22:32.628576","MEAN_MOTION":14.07508511,"ECCENTRICITY":0.0034661,"INCLINATION":98.8107,"RA_OF_ASC_NODE":54.5452,"ARG_OF_PERICENTER":85.0174,"MEAN_ANOMALY":38.5415,"EPHEMERIS_TYPE":0,"CLASSIFICATION_TYPE":"U","NORAD_CAT_ID":29938,"ELEMENT_SET_NO":999,"REV_AT_EPOCH":98179,"BSTAR":0.00020631,"MEAN_MOTION_DOT":3.07e-6,"MEAN_MOTION_DDOT":0},{"OBJECT_NAME":"FENGYUN 1C DEB","OBJECT_ID":"1999-025JM","EPOCH":"2026-03-02T13:54:56.815200","MEAN_MOTION":14.12107189,"ECCENTRICITY":0.0065134,"INCLINATION":98.7142,"RA_OF_ASC_NODE":63.9081,"ARG_OF_PERICENTER":272.2368,"MEAN_ANOMALY":199.0762,"EPHEMERIS_TYPE":0,"CLASSIFICATION_TYPE":"U","NORAD_CAT_ID":29939,"ELEMENT_SET_NO":999,"REV_AT_EPOCH":98587,"BSTAR":7.0928e-5,"MEAN_MOTION_DOT":8.9e-7,"MEAN_MOTION_DDOT":0},{"OBJECT_NAME":"FENGYUN 1C DEB","OBJECT_ID":"1999-025JN","EPOCH":"2026-03-02T14:07:15.945600","MEAN_MOTION":14.19053032,"ECCENTRICITY":0.0072963,"INCLINATION":98.6215,"RA_OF_ASC_NODE":74.0852,"ARG_OF_PERICENTER":229.0007,"MEAN_ANOMALY":255.0081,"EPHEMERIS_TYPE":0,"CLASSIFICATION_TYPE":"U","NORAD_CAT_ID":29940,"ELEMENT_SET_NO":999,"REV_AT_EPOCH":98620,"BSTAR":0.00053234,"MEAN_MOTION_DOT":1.099e-5,"MEAN_MOTION_DDOT":0},{"OBJECT_NAME":"FENGYUN 1C DEB","OBJECT_ID":"1999-025JQ","EPOCH":"2026-03-02T10:21:18.186336","MEAN_MOTION":14.30746887,"ECCENTRICITY":0.00494605,"INCLINATION":98.6249,"RA_OF_ASC_NODE":131.6787,"ARG_OF_PERICENTER":44.0821,"MEAN_ANOMALY":316.4289,"EPHEMERIS_TYPE":0,"CLASSIFICATION_TYPE":"U","NORAD_CAT_ID":29942,"ELEMENT_SET_NO":999,"REV_AT_EPOCH":99008,"BSTAR":0.00065691655,"MEAN_MOTION_DOT":1.699e-5,"MEAN_MOTION_DDOT":0},{"OBJECT_NAME":"FENGYUN 1C DEB","OBJECT_ID":"1999-025JR","EPOCH":"2026-03-02T15:37:24.108672","MEAN_MOTION":14.09689595,"ECCENTRICITY":0.0035675,"INCLINATION":98.7277,"RA_OF_ASC_NODE":71.9694,"ARG_OF_PERICENTER":3.7318,"MEAN_ANOMALY":109.8302,"EPHEMERIS_TYPE":0,"CLASSIFICATION_TYPE":"U","NORAD_CAT_ID":29943,"ELEMENT_SET_NO":999,"REV_AT_EPOCH":98432,"BSTAR":2.0681e-5,"MEAN_MOTION_DOT":-6.0e-8,"MEAN_MOTION_DDOT":0},{"OBJECT_NAME":"FENGYUN 1C DEB","OBJECT_ID":"1999-025JS","EPOCH":"2026-03-02T19:32:38.226048","MEAN_MOTION":14.89550443,"ECCENTRICITY":0.0161696,"INCLINATION":99.0126,"RA_OF_ASC_NODE":11.7814,"ARG_OF_PERICENTER":337.6773,"MEAN_ANOMALY":21.7456,"EPHEMERIS_TYPE":0,"CLASSIFICATION_TYPE":"U","NORAD_CAT_ID":29944,"ELEMENT_SET_NO":999,"REV_AT_EPOCH":1645,"BSTAR":0.0018122,"MEAN_MOTION_DOT":0.00022098,"MEAN_MOTION_DDOT":0},{"OBJECT_NAME":"FENGYUN 1C DEB","OBJECT_ID":"1999-025JT","EPOCH":"2026-03-02T16:47:48.811200","MEAN_MOTION":14.05609392,"ECCENTRICITY":0.0031791,"INCLINATION":98.7855,"RA_OF_ASC_NODE":87.9218,"ARG_OF_PERICENTER":134.8978,"MEAN_ANOMALY":338.6912,"EPHEMERIS_TYPE":0,"CLASSIFICATION_TYPE":"U","NORAD_CAT_ID":29945,"ELEMENT_SET_NO":999,"REV_AT_EPOCH":98101,"BSTAR":-1.5489e-5,"MEAN_MOTION_DOT":-6.8e-7,"MEAN_MOTION_DDOT":0},{"OBJECT_NAME":"FENGYUN 1C DEB","OBJECT_ID":"1999-025JU","EPOCH":"2026-03-02T13:01:53.978304","MEAN_MOTION":14.08330682,"ECCENTRICITY":0.00815948,"INCLINATION":98.7874,"RA_OF_ASC_NODE":56.6726,"ARG_OF_PERICENTER":117.3581,"MEAN_ANOMALY":0.0417,"EPHEMERIS_TYPE":0,"CLASSIFICATION_TYPE":"U","NORAD_CAT_ID":29946,"ELEMENT_SET_NO":999,"REV_AT_EPOCH":98170,"BSTAR":0.00016662441,"MEAN_MOTION_DOT":2.52e-6,"MEAN_MOTION_DDOT":0},{"OBJECT_NAME":"FENGYUN 1C DEB","OBJECT_ID":"1999-025JV","EPOCH":"2026-03-02T15:03:48.895200","MEAN_MOTION":14.03126197,"ECCENTRICITY":0.0039057,"INCLINATION":98.8271,"RA_OF_ASC_NODE":94.8293,"ARG_OF_PERICENTER":257.5183,"MEAN_ANOMALY":217.3939,"EPHEMERIS_TYPE":0,"CLASSIFICATION_TYPE":"U","NORAD_CAT_ID":29947,"ELEMENT_SET_NO":999,"REV_AT_EPOCH":97870,"BSTAR":0.0001793,"MEAN_MOTION_DOT":2.38e-6,"MEAN_MOTION_DDOT":0},{"OBJECT_NAME":"FENGYUN 1C DEB","OBJECT_ID":"1999-025JW","EPOCH":"2026-03-02T13:12:35.114688","MEAN_MOTION":14.06237357,"ECCENTRICITY":0.0084758,"INCLINATION":98.8338,"RA_OF_ASC_NODE":50.7432,"ARG_OF_PERICENTER":10.6962,"MEAN_ANOMALY":113.6014,"EPHEMERIS_TYPE":0,"CLASSIFICATION_TYPE":"U","NORAD_CAT_ID":29948,"ELEMENT_SET_NO":999,"REV_AT_EPOCH":98098,"BSTAR":0.00025324,"MEAN_MOTION_DOT":3.87e-6,"MEAN_MOTION_DDOT":0},{"OBJECT_NAME":"FENGYUN 1C DEB","OBJECT_ID":"1999-025JX","EPOCH":"2026-03-02T15:58:48.036000","MEAN_MOTION":14.06841942,"ECCENTRICITY":0.0025163,"INCLINATION":98.7593,"RA_OF_ASC_NODE":79.8441,"ARG_OF_PERICENTER":79.6427,"MEAN_ANOMALY":39.8367,"EPHEMERIS_TYPE":0,"CLASSIFICATION_TYPE":"U","NORAD_CAT_ID":29949,"ELEMENT_SET_NO":999,"REV_AT_EPOCH":98231,"BSTAR":-8.7453e-6,"MEAN_MOTION_DOT":-5.7e-7,"MEAN_MOTION_DDOT":0},{"OBJECT_NAME":"FENGYUN 1C DEB","OBJECT_ID":"1999-025JY","EPOCH":"2026-03-02T17:03:34.258752","MEAN_MOTION":14.10374666,"ECCENTRICITY":0.0033323,"INCLINATION":98.7316,"RA_OF_ASC_NODE":95.5213,"ARG_OF_PERICENTER":18.3433,"MEAN_ANOMALY":96.3826,"EPHEMERIS_TYPE":0,"CLASSIFICATION_TYPE":"U","NORAD_CAT_ID":29950,"ELEMENT_SET_NO":999,"REV_AT_EPOCH":98418,"BSTAR":0.00010397,"MEAN_MOTION_DOT":1.43e-6,"MEAN_MOTION_DDOT":0},{"OBJECT_NAME":"FENGYUN 1C DEB","OBJECT_ID":"1999-025KB","EPOCH":"2026-03-02T10:44:38.451264","MEAN_MOTION":13.90924674,"ECCENTRICITY":0.01074636,"INCLINATION":98.9468,"RA_OF_ASC_NODE":50.3954,"ARG_OF_PERICENTER":49.2735,"MEAN_ANOMALY":101.5769,"EPHEMERIS_TYPE":0,"CLASSIFICATION_TYPE":"U","NORAD_CAT_ID":29953,"ELEMENT_SET_NO":999,"REV_AT_EPOCH":96970,"BSTAR":0.00037683534,"MEAN_MOTION_DOT":4.53e-6,"MEAN_MOTION_DDOT":0},{"OBJECT_NAME":"FENGYUN 1C DEB","OBJECT_ID":"1999-025KC","EPOCH":"2026-03-02T15:47:07.598976","MEAN_MOTION":14.34655541,"ECCENTRICITY":0.0073865,"INCLINATION":100.14,"RA_OF_ASC_NODE":118.5397,"ARG_OF_PERICENTER":45.5185,"MEAN_ANOMALY":315.2002,"EPHEMERIS_TYPE":0,"CLASSIFICATION_TYPE":"U","NORAD_CAT_ID":29954,"ELEMENT_SET_NO":999,"REV_AT_EPOCH":99333,"BSTAR":0.0007595,"MEAN_MOTION_DOT":2.158e-5,"MEAN_MOTION_DDOT":0}]
